SKYSAT-A                
1 39418U 13066C   26120.10514211  .00003399  00000+0  19662-3 0  9997
2 39418  97.3856 171.0336 0023056 119.1342 241.2201 15.12691660681210
SKYSAT-B                
1 40072U 14037D   26120.11096825  .00001617  00000+0  18329-3 0  9991
2 40072  98.3804  76.3516 0006960  77.0300 283.1691 14.87898372638816
SKYSAT-C1               
1 41601U 16040C   26120.06896210  .00009448  00000+0  27609-3 0  9997
2 41601  96.9608 154.4152 0002874 156.2827 203.8551 15.35482216550489
SKYSAT-C4               
1 41771U 16058B   26120.29724723  .00016641  00000+0  32990-3 0  9990
2 41771  96.9207 144.1184 0003465  90.7318 269.4330 15.47094848538063
SKYSAT-C5               
1 41772U 16058C   26120.09687164  .00008273  00000+0  25548-3 0  9999
2 41772  97.0518 162.8960 0004970 102.8578 257.3221 15.33770000536378
SKYSAT-C2               
1 41773U 16058D   26120.02799048  .00012668  00000+0  30921-3 0  9992
2 41773  97.0204 143.9664 0002594 183.5801 176.5428 15.40978003537639
SKYSAT-C3               
1 41774U 16058E   26120.02882108  .00023723  00000+0  41620-3 0  9995
2 41774  96.9078 152.7805 0002774 102.1688 257.9876 15.50539690538641
SKYSAT-C11              
1 42987U 17068A   26119.97260514  .00029940  00000+0  44039-3 0  9991
2 42987  97.4291 266.8168 0001547 136.3056 223.8321 15.55413984475745
SKYSAT-C10              
1 42988U 17068B   26120.28868724  .00010242  00000+0  31575-3 0  9991
2 42988  97.4432 256.7206 0001657 107.5575 252.5849 15.33794139475016
SKYSAT-C9               
1 42989U 17068C   26120.18536041  .00014220  00000+0  35360-3 0  9991
2 42989  97.4356 257.1054 0007393 314.5108  45.5533 15.40379127475365
SKYSAT-C8               
1 42990U 17068D   26119.94008551  .00012033  00000+0  34537-3 0  9990
2 42990  97.4447 255.9891 0001235 112.1362 248.0012 15.36008181474901
SKYSAT-C7               
1 42991U 17068E   26120.19247012  .00011899  00000+0  34208-3 0  9991
2 42991  97.4462 257.2312 0004646 278.4273  81.6443 15.35953735475002
SKYSAT-C6               
1 42992U 17068F   26119.93938176  .00010540  00000+0  32681-3 0  9995
2 42992  97.4493 257.1047 0001520 347.6998  12.4207 15.33602494474923
SKYSAT-C12              
1 43797U 18099AR  26120.00375590  .00017881  00000+0  35105-3 0  9998
2 43797  96.9299 145.2251 0002908   2.4576 357.6689 15.47366669414409
SKYSAT-C13              
1 43802U 18099AW  26120.08017196  .00167543  00000+0  59098-3 0  9996
2 43802  96.9258 168.2058 0002355  98.7490 261.4050 15.88685796415292
FLOCK 4Q-16             
1 58271U 23174R   26120.20948049  .00023847  00000+0  47002-3 0  9996
2 58271  97.3833 207.2867 0005003 345.0989  15.0113 15.47196243138157
FLOCK 4Q-11             
1 58273U 23174T   26120.26737974  .00024488  00000+0  47503-3 0  9995
2 58273  97.3874 207.8892 0004713 340.9142  19.1931 15.47654854138172
FLOCK 4Q-36             
1 58274U 23174U   26120.16147294  .00037351  00000+0  56508-3 0  9993
2 58274  97.3854 210.9305 0005299 310.0718  50.0071 15.54584683138362
FLOCK 4Q-28             
1 58280U 23174AA  26120.19002209  .00028570  00000+0  47313-3 0  9996
2 58280  97.3884 209.9212 0003761 320.2977  39.8000 15.52134850138293
FLOCK 4Q-27             
1 58282U 23174AC  26120.18833077  .00028587  00000+0  47523-3 0  9993
2 58282  97.3815 209.4083 0003544 319.6316  40.4673 15.52028109138303
FLOCK 4Q-26             
1 58284U 23174AE  26120.16132825  .00034624  00000+0  53126-3 0  9991
2 58284  97.3877 211.0105 0004713 323.2414  36.8516 15.54214758138366
FLOCK 4Q-31             
1 58285U 23174AF  26120.19904721  .00036803  00000+0  56440-3 0  9990
2 58285  97.3913 210.7034 0004601 318.6168  41.4737 15.54217624138323
FLOCK 4Q-30             
1 58286U 23174AG  26120.24456436  .00039623  00000+0  60297-3 0  9990
2 58286  97.3928 210.9611 0003072 317.1724  42.9290 15.54421815138347
PELICAN-1               
1 58296U 23174AS  26120.21190466  .00161275  00000+0  12146-2 0  9994
2 58296  97.3976 217.5915 0003583 124.9935 235.1665 15.72027779138620
FLOCK 4Q-29             
1 58304U 23174BA  26120.18958165  .00031593  00000+0  51038-3 0  9991
2 58304  97.3930 210.3837 0003973 307.5171  52.5721 15.52807200138300
FLOCK 4Q-22             
1 58306U 23174BC  26120.24408899  .00043331  00000+0  61890-3 0  9994
2 58306  97.3815 210.7866 0003143 302.3028  57.7922 15.56137531138401
FLOCK 4Q-33             
1 58308U 23174BE  26120.20391068  .00032150  00000+0  48441-3 0  9995
2 58308  97.3857 210.6170 0004213 299.6491  60.4343 15.54732815138375
FLOCK 4Q-35             
1 58309U 23174BF  26120.22618030  .00035944  00000+0  56179-3 0  9990
2 58309  97.3875 210.7352 0004216 317.3883  42.7043 15.53699308138351
FLOCK 4Q-7              
1 58318U 23174BQ  26120.23227277  .00034405  00000+0  56019-3 0  9994
2 58318  97.3916 210.2059 0005077 305.7516  54.3264 15.52566244138306
FLOCK 4Q-2              
1 58320U 23174BS  26120.24972145  .00026426  00000+0  51427-3 0  9991
2 58320  97.3832 207.6325 0004407 311.8930  48.1944 15.47547994138183
FLOCK 4Q-9              
1 58322U 23174BU  26120.21241661  .00030698  00000+0  59864-3 0  9991
2 58322  97.3872 207.6438 0004542 312.2429  47.8436 15.47458510138167
FLOCK 4Q-4              
1 58327U 23174BZ  26120.16903636  .00023064  00000+0  46342-3 0  9993
2 58327  97.3829 206.8962 0004685 345.2327  14.8785 15.46644454138139
FLOCK 4Q-13             
1 58328U 23174CA  26120.23767663  .00024765  00000+0  44888-3 0  9992
2 58328  97.4000 209.7299 0004993 330.6749  29.4221 15.49602200138240
FLOCK 4BE-18            
1 60480U 24149N   26120.22544754  .00018252  00000+0  45427-3 0  9994
2 60480  97.3732 203.5116 0004828  82.3062 277.8732 15.40308797 94926
FLOCK 4BE-7             
1 60481U 24149P   26120.17821907  .00025760  00000+0  68208-3 0  9991
2 60481  97.3766 202.9128 0004053  89.5799 270.5911 15.38343042 94867
FLOCK 4BE-26            
1 60484U 24149S   26120.20382630  .00168611  00000+0  23436-2 0  9999
2 60484  97.3685 204.2428 0001913 141.5477 218.5914 15.56407874 94973
FLOCK 4BE-36            
1 60486U 24149U   26120.22448121  .00019236  00000+0  46458-3 0  9999
2 60486  97.3744 204.1351 0004955  90.7013 269.4801 15.41211199 94961
FLOCK 4BE-25            
1 60487U 24149V   26120.20816320  .00014394  00000+0  39217-3 0  9993
2 60487  97.3803 203.0803 0003551  90.0369 270.1282 15.37582908 94861
FLOCK 4BE-31            
1 60488U 24149W   26120.22772060  .00021850  00000+0  50921-3 0  9998
2 60488  97.3804 204.8728 0003936  95.1679 265.0017 15.42265830 94985
FLOCK 4BE-20            
1 60489U 24149X   26120.21239410  .00015354  00000+0  42870-3 0  9991
2 60489  97.3706 202.0854 0005096  89.2864 270.8965 15.36799381 94843
FLOCK 4BE-23            
1 60490U 24149Y   26120.19120278  .00016310  00000+0  46063-3 0  9992
2 60490  97.3786 202.4137 0005001  96.1219 264.0595 15.36429828 94826
FLOCK 4BE-15            
1 60491U 24149Z   26120.20045044  .00118936  00000+0  21218-2 0  9993
2 60491  97.3711 204.1559 0005259 165.5139 194.6264 15.49629437 94978
FLOCK 4BE-17            
1 60492U 24149AA  26120.17316377  .00016128  00000+0  42793-3 0  9992
2 60492  97.3781 203.2163 0004330  88.5920 271.5821 15.38374515 94873
FLOCK 4BE-22            
1 60494U 24149AC  26120.19692675  .00017578  00000+0  44641-3 0  9998
2 60494  97.3737 203.3590 0004951  93.2466 266.9346 15.39700019 94916
FLOCK 4BE-34            
1 60495U 24149AD  26120.21492493  .00016805  00000+0  42598-3 0  9999
2 60495  97.3784 204.1673 0005240 100.7381 259.4456 15.39766167 94940
FLOCK 4BE-32            
1 60497U 24149AF  26120.21056018  .00019168  00000+0  47349-3 0  9994
2 60497  97.3727 203.6816 0005180  97.9234 262.2600 15.40525643 94946
FLOCK 4BE-30            
1 60499U 24149AH  26120.25715734  .00099069  00000+0  19746-2 0  9994
2 60499  97.3794 204.5660 0003208 166.2135 193.9203 15.46515101 94345
FLOCK 4BE-11            
1 60501U 24149AK  26120.23142910  .00019084  00000+0  45842-3 0  9992
2 60501  97.3707 203.8847 0005179  97.4414 262.7421 15.41374627 94962
FLOCK 4BE-24            
1 60505U 24149AP  26120.21767916  .00021346  00000+0  51391-3 0  9993
2 60505  97.3721 204.1168 0005280 105.3580 254.8251 15.41283528 94971
TANAGER-1               
1 60507U 24149AR  26118.53756888  .00008123  00000+0  17808-3 0  9996
2 60507  97.3419 212.5490 0007403 121.8319 238.3651 15.44320285 95371
FLOCK 4BE-29            
1 60509U 24149AT  26120.20037028  .00018587  00000+0  42930-3 0  9992
2 60509  97.3812 205.4115 0004246 112.1662 248.0037 15.42568138 95017
FLOCK 4BE-2             
1 60511U 24149AV  26120.22691720  .00051769  00000+0  98789-3 0  9994
2 60511  97.3821 206.3444 0004500 111.3746 248.7985 15.47973261 95079
FLOCK 4BE-13            
1 60512U 24149AW  26120.17557129  .00015585  00000+0  38485-3 0  9996
2 60512  97.3725 204.1376 0005438  90.2614 269.9255 15.40579014 94977
FLOCK 4BE-27            
1 60513U 24149AX  26120.18465667  .00009818  00000+0  30440-3 0  9998
2 60513  97.3832 202.0444 0005599 111.6125 248.5715 15.33607822 94787
FLOCK 4BE-9             
1 60514U 24149AY  26120.20337558  .00016841  00000+0  43281-3 0  9990
2 60514  97.3796 204.0647 0004423 113.5397 246.6314 15.39347596 94937
FLOCK 4BE-6             
1 60516U 24149BA  26120.19624947  .00015789  00000+0  42050-3 0  9994
2 60516  97.3792 203.5014 0005201 111.9913 248.1886 15.38259579 94896
FLOCK 4BE-14            
1 60517U 24149BB  26120.22127990  .00017393  00000+0  44440-3 0  9993
2 60517  97.3704 203.6265 0006085 110.4931 249.6969 15.39510243 94947
FLOCK 4BE-1             
1 60518U 24149BC  26120.22037759  .00018074  00000+0  43969-3 0  9999
2 60518  97.3782 204.7362 0005615 110.6436 249.5413 15.41001034 94987
FLOCK 4BE-28            
1 60519U 24149BD  26120.17539698  .00020545  00000+0  46380-3 0  9999
2 60519  97.3753 205.2696 0005749 106.5290 253.6590 15.43223759 95033
